[{"OBJECT_NAME":"STARLINK-36351","OBJECT_ID":"2026-018U","EPOCH":"2026-03-09T17:07:47.246592","MEAN_MOTION":15.7519734,"ECCENTRICITY":0.00013103,"INCLINATION":97.284,"RA_OF_ASC_NODE":134.5573,"ARG_OF_PERICENTER":81.8795,"MEAN_ANOMALY":278.2619,"EPHEMERIS_TYPE":0,"CLASSIFICATION_TYPE":"U","NORAD_CAT_ID":67607,"ELEMENT_SET_NO":999,"REV_AT_EPOCH":731,"BSTAR":0.0020697965,"MEAN_MOTION_DOT":0.00320575,"MEAN_MOTION_DDOT":0},{"OBJECT_NAME":"CZ-2F DEB","OBJECT_ID":"2026-024G","EPOCH":"2026-03-09T22:26:56.614272","MEAN_MOTION":15.01116214,"ECCENTRICITY":0.03207922,"INCLINATION":49.8328,"RA_OF_ASC_NODE":21.451,"ARG_OF_PERICENTER":268.4479,"MEAN_ANOMALY":87.9702,"EPHEMERIS_TYPE":0,"CLASSIFICATION_TYPE":"U","NORAD_CAT_ID":67720,"ELEMENT_SET_NO":999,"REV_AT_EPOCH":459,"BSTAR":0.0038278463,"MEAN_MOTION_DOT":0.00157764,"MEAN_MOTION_DDOT":0}]
